{"type": "FeatureCollection", "features": [ {"type": "Feature", "properties": {"norad_id": 66806, "name": "STARLINK-36069", "group": "last-30-days", "lat": 36.601571513974484, "lon": -44.19534447516152, "alt_km": 293.0726470677964, "timestamp": "2025-12-10T23:33:11.624056+00:00", "meta": {"OBJECT_NAME": "STARLINK-36069", "OBJECT_ID": "2025-278R", "EPOCH": "2025-12-10T12:00:02.999808", "MEAN_MOTION": 15.92963063, "ECCENTRICITY": 0.00019438, "INCLINATION": 42.9989, "RA_OF_ASC_NODE": 265.9491, "ARG_OF_PERICENTER": 267.2334, "MEAN_ANOMALY": 271.0926, "EPHEMERIS_TYPE": 0, "CLASSIFICATION_TYPE": "U", "NORAD_CAT_ID": 66806, "ELEMENT_SET_NO": 999, "REV_AT_EPOCH": 238, "BSTAR": -0.0037459656, "MEAN_MOTION_DOT": -0.01352578, "MEAN_MOTION_DDOT": 0.00052984821}, "tle": {"line1": "1 66806U 25278R   25344.50003472 -.01352578  52985-3 -37460-2 0  9996", "line2": "2 66806  42.9989 265.9491 0001943 267.2334 271.0926 15.92963063  2383"}}, "geometry": {"type": "Point", "coordinates": [-44.19534447516152, 36.601571513974484]}}, {"type": "Feature", "properties": {"norad_id": 66807, "name": "STARLINK-36000", "group": "last-30-days", "lat": 39.08694912525065, "lon": -36.399140906429864, "alt_km": 292.381355066218, "timestamp": "2025-12-10T23:33:11.624068+00:00", "meta": {"OBJECT_NAME": "STARLINK-36000", "OBJECT_ID": "2025-278S", "EPOCH": "2025-12-10T12:00:02.999808", "MEAN_MOTION": 15.93105764, "ECCENTRICITY": 0.00019529, "INCLINATION": 42.9987, "RA_OF_ASC_NODE": 265.9329, "ARG_OF_PERICENTER": 265.2605, "MEAN_ANOMALY": 279.4598, "EPHEMERIS_TYPE": 0, "CLASSIFICATION_TYPE": "U", "NORAD_CAT_ID": 66807, "ELEMENT_SET_NO": 999, "REV_AT_EPOCH": 265, "BSTAR": -0.0037137316, "MEAN_MOTION_DOT": -0.01351078, "MEAN_MOTION_DDOT": 0.00052951143}, "tle": {"line1": "1 66807U 25278S   25344.50003472 -.01351078  52951-3 -37137-2 0  9995", "line2": "2 66807  42.9987 265.9329 0001952 265.2605 279.4598 15.93105764  2655"}}, "geometry": {"type": "Point", "coordinates": [-36.399140906429864, 39.08694912525065]}}, {"type": "Feature", "properties": {"norad_id": 66808, "name": "STARLINK-36071", "group": "last-30-days", "lat": 39.73837633254849, "lon": -33.91765992345322, "alt_km": 292.13375480371633, "timestamp": "2025-12-10T23:33:11.624078+00:00", "meta": {"OBJECT_NAME": "STARLINK-36071", "OBJECT_ID": "2025-278T", "EPOCH": "2025-12-10T12:00:02.999808", "MEAN_MOTION": 15.93150911, "ECCENTRICITY": 0.00019118, "INCLINATION": 42.9989, "RA_OF_ASC_NODE": 265.9277, "ARG_OF_PERICENTER": 265.8296, "MEAN_ANOMALY": 280.8375, "EPHEMERIS_TYPE": 0, "CLASSIFICATION_TYPE": "U", "NORAD_CAT_ID": 66808, "ELEMENT_SET_NO": 999, "REV_AT_EPOCH": 259, "BSTAR": -0.003699789, "MEAN_MOTION_DOT": -0.01349225, "MEAN_MOTION_DDOT": 0.00052841554}, "tle": {"line1": "1 66808U 25278T   25344.50003472 -.01349225  52842-3 -36998-2 0  9990", "line2": "2 66808  42.9989 265.9277 0001911 265.8296 280.8375 15.93150911  2593"}}, "geometry": {"type": "Point", "coordinates": [-33.91765992345322, 39.73837633254849]}}, {"type": "Feature", "properties": {"norad_id": 66809, "name": "STARLINK-35979", "group": "last-30-days", "lat": 41.59595073901861, "lon": -24.77904757200459, "alt_km": 291.524300323681, "timestamp": "2025-12-10T23:33:11.624088+00:00", "meta": {"OBJECT_NAME": "STARLINK-35979", "OBJECT_ID": "2025-278U", "EPOCH": "2025-12-10T12:00:02.999808", "MEAN_MOTION": 15.93318946, "ECCENTRICITY": 0.00019349, "INCLINATION": 42.9987, "RA_OF_ASC_NODE": 265.9103, "ARG_OF_PERICENTER": 265.2855, "MEAN_ANOMALY": 288.2915, "EPHEMERIS_TYPE": 0, "CLASSIFICATION_TYPE": "U", "NORAD_CAT_ID": 66809, "ELEMENT_SET_NO": 999, "REV_AT_EPOCH": 259, "BSTAR": -0.0037448988, "MEAN_MOTION_DOT": -0.01377527, "MEAN_MOTION_DDOT": 0.0005498016}, "tle": {"line1": "1 66809U 25278U   25344.50003472 -.01377527  54980-3 -37449-2 0  9994", "line2": "2 66809  42.9987 265.9103 0001934 265.2855 288.2915 15.93318946  2596"}}, "geometry": {"type": "Point", "coordinates": [-24.77904757200459, 41.59595073901861]}}, {"type": "Feature", "properties": {"norad_id": 66810, "name": "STARLINK-36046", "group": "last-30-days", "lat": 40.45147135645785, "lon": -30.865094205465784, "alt_km": 291.9305518369265, "timestamp": "2025-12-10T23:33:11.624097+00:00", "meta": {"OBJECT_NAME": "STARLINK-36046", "OBJECT_ID": "2025-278V", "EPOCH": "2025-12-10T12:00:02.999808", "MEAN_MOTION": 15.93202698, "ECCENTRICITY": 0.00019286, "INCLINATION": 42.9989, "RA_OF_ASC_NODE": 265.922, "ARG_OF_PERICENTER": 263.978, "MEAN_ANOMALY": 285.0453, "EPHEMERIS_TYPE": 0, "CLASSIFICATION_TYPE": "U", "NORAD_CAT_ID": 66810, "ELEMENT_SET_NO": 999, "REV_AT_EPOCH": 236, "BSTAR": -0.0036959936, "MEAN_MOTION_DOT": -0.01351508, "MEAN_MOTION_DDOT": 0.00053032356}, "tle": {"line1": "1 66810U 25278V   25344.50003472 -.01351508  53032-3 -36960-2 0  9991", "line2": "2 66810  42.9989 265.9220 0001928 263.9780 285.0453 15.93202698  2368"}}, "geometry": {"type": "Point", "coordinates": [-30.865094205465784, 40.45147135645785]}}, {"type": "Feature", "properties": {"norad_id": 66811, "name": "STARLINK-36045", "group": "last-30-days", "lat": 41.093089110431755, "lon": -27.693274249511113, "alt_km": 291.69115015650186, "timestamp": "2025-12-10T23:33:11.624106+00:00", "meta": {"OBJECT_NAME": "STARLINK-36045", "OBJECT_ID": "2025-278W", "EPOCH": "2025-12-10T12:00:02.999808", "MEAN_MOTION": 15.93258314, "ECCENTRICITY": 0.00019443, "INCLINATION": 42.9989, "RA_OF_ASC_NODE": 265.916, "ARG_OF_PERICENTER": 267.3984, "MEAN_ANOMALY": 284.0193, "EPHEMERIS_TYPE": 0, "CLASSIFICATION_TYPE": "U", "NORAD_CAT_ID": 66811, "ELEMENT_SET_NO": 999, "REV_AT_EPOCH": 259, "BSTAR": -0.0037002515, "MEAN_MOTION_DOT": -0.01356986, "MEAN_MOTION_DDOT": 0.00053455794}, "tle": {"line1": "1 66811U 25278W   25344.50003472 -.01356986  53456-3 -37003-2 0  9996", "line2": "2 66811  42.9989 265.9160 0001944 267.3984 284.0193 15.93258314  2595"}}, "geometry": {"type": "Point", "coordinates": [-27.693274249511113, 41.093089110431755]}}, {"type": "Feature", "properties": {"norad_id": 66812, "name": "STARLINK-36054", "group": "last-30-days", "lat": 41.97406242417667, "lon": -22.200600001093267, "alt_km": 291.2872507792663, "timestamp": "2025-12-10T23:33:11.624114+00:00", "meta": {"OBJECT_NAME": "STARLINK-36054", "OBJECT_ID": "2025-278X", "EPOCH": "2025-12-10T12:00:02.999808", "MEAN_MOTION": 15.93359123, "ECCENTRICITY": 0.0001864, "INCLINATION": 42.999, "RA_OF_ASC_NODE": 265.9057, "ARG_OF_PERICENTER": 265.9353, "MEAN_ANOMALY": 289.5254, "EPHEMERIS_TYPE": 0, "CLASSIFICATION_TYPE": "U", "NORAD_CAT_ID": 66812, "ELEMENT_SET_NO": 999, "REV_AT_EPOCH": 259, "BSTAR": -0.0037121406, "MEAN_MOTION_DOT": -0.01368466, "MEAN_MOTION_DDOT": 0.00054340883}, "tle": {"line1": "1 66812U 25278X   25344.50003472 -.01368466  54341-3 -37121-2 0  9998", "line2": "2 66812  42.9990 265.9057 0001864 265.9353 289.5254 15.93359123  2596"}}, "geometry": {"type": "Point", "coordinates": [-22.200600001093267, 41.97406242417667]}}, {"type": "Feature", "properties": {"norad_id": 66813, "name": "STARLINK-36042", "group": "last-30-days", "lat": 42.26948199122481, "lon": -19.80865120675123, "alt_km": 291.16765935470994, "timestamp": "2025-12-10T23:33:11.624123+00:00", "meta": {"OBJECT_NAME": "STARLINK-36042", "OBJECT_ID": "2025-278Y", "EPOCH": "2025-12-10T12:00:02.999808", "MEAN_MOTION": 15.93404588, "ECCENTRICITY": 0.00019052, "INCLINATION": 42.9991, "RA_OF_ASC_NODE": 265.9012, "ARG_OF_PERICENTER": 265.138, "MEAN_ANOMALY": 292.0482, "EPHEMERIS_TYPE": 0, "CLASSIFICATION_TYPE": "U", "NORAD_CAT_ID": 66813, "ELEMENT_SET_NO": 999, "REV_AT_EPOCH": 259, "BSTAR": -0.0037165015, "MEAN_MOTION_DOT": -0.01373327, "MEAN_MOTION_DDOT": 0.00054719497}, "tle": {"line1": "1 66813U 25278Y   25344.50003472 -.01373327  54719-3 -37165-2 0  9998", "line2": "2 66813  42.9991 265.9012 0001905 265.1380 292.0482 15.93404588  2595"}}, "geometry": {"type": "Point", "coordinates": [-19.80865120675123, 42.26948199122481]}}, {"type": "Feature", "properties": {"norad_id": 66814, "name": "STARLINK-35984", "group": "last-30-days", "lat": 42.72961193772564, "lon": 0.3991448182989659, "alt_km": 290.358971850892, "timestamp": "2025-12-10T23:33:11.624132+00:00", "meta": {"OBJECT_NAME": "STARLINK-35984", "OBJECT_ID": "2025-278Z", "EPOCH": "2025-12-10T12:00:02.999808", "MEAN_MOTION": 15.93730104, "ECCENTRICITY": 0.00018277, "INCLINATION": 42.9985, "RA_OF_ASC_NODE": 265.8644, "ARG_OF_PERICENTER": 262.6719, "MEAN_ANOMALY": 308.9007, "EPHEMERIS_TYPE": 0, "CLASSIFICATION_TYPE": "U", "NORAD_CAT_ID": 66814, "ELEMENT_SET_NO": 999, "REV_AT_EPOCH": 268, "BSTAR": -0.003876347, "MEAN_MOTION_DOT": -0.01456296, "MEAN_MOTION_DDOT": 0.00061128218}, "tle": {"line1": "1 66814U 25278Z   25344.50003472 -.01456296  61128-3 -38763-2 0  9993", "line2": "2 66814  42.9985 265.8644 0001827 262.6719 308.9007 15.93730104  2686"}}, "geometry": {"type": "Point", "coordinates": [0.3991448182989659, 42.72961193772564]}}, {"type": "Feature", "properties": {"norad_id": 66815, "name": "STARLINK-35985", "group": "last-30-days", "lat": 42.87149190551908, "lon": -2.2042371738663102, "alt_km": 290.47584326515425, "timestamp": "2025-12-10T23:33:11.624142+00:00", "meta": {"OBJECT_NAME": "STARLINK-35985", "OBJECT_ID": "2025-278AA", "EPOCH": "2025-12-10T12:00:02.999808", "MEAN_MOTION": 15.93675711, "ECCENTRICITY": 0.00018657, "INCLINATION": 42.9984, "RA_OF_ASC_NODE": 265.8692, "ARG_OF_PERICENTER": 263.4746, "MEAN_ANOMALY": 306.2606, "EPHEMERIS_TYPE": 0, "CLASSIFICATION_TYPE": "U", "NORAD_CAT_ID": 66815, "ELEMENT_SET_NO": 999, "REV_AT_EPOCH": 268, "BSTAR": -0.0038393316, "MEAN_MOTION_DOT": -0.01438453, "MEAN_MOTION_DDOT": 0.00059729205}, "tle": {"line1": "1 66815U 25278AA  25344.50003472 -.01438453  59729-3 -38393-2 0  9992", "line2": "2 66815  42.9984 265.8692 0001865 263.4746 306.2606 15.93675711  2688"}}, "geometry": {"type": "Point", "coordinates": [-2.2042371738663102, 42.87149190551908]}}]}